{"type": "FeatureCollection", "features": [ {"type": "Feature", "properties": {"norad_id": 65077, "name": "CREW DRAGON 11", "group": "stations", "lat": 2.17976663245412, "lon": -13.196666945372124, "alt_km": 417.0895368235433, "timestamp": "2025-12-07T11:27:48.758275+00:00", "meta": {"OBJECT_NAME": "CREW DRAGON 11", "OBJECT_ID": "2025-166A", "EPOCH": "2025-12-06T20:46:13.238400", "MEAN_MOTION": 15.49374779, "ECCENTRICITY": 0.00034973, "INCLINATION": 51.6304, "RA_OF_ASC_NODE": 171.5636, "ARG_OF_PERICENTER": 213.1314, "MEAN_ANOMALY": 146.9456, "EPHEMERIS_TYPE": 0, "CLASSIFICATION_TYPE": "U", "NORAD_CAT_ID": 65077, "ELEMENT_SET_NO": 999, "REV_AT_EPOCH": 214, "BSTAR": 0.00025393652, "MEAN_MOTION_DOT": 0.0001375, "MEAN_MOTION_DDOT": 0}, "tle": {"line1": "1 65077U 25166A   25340.86543100  .00013750  00000+0  25394-3 0  9997", "line2": "2 65077  51.6304 171.5636 0003497 213.1314 146.9456 15.49374779  2141"}}, "geometry": {"type": "Point", "coordinates": [-13.196666945372124, 2.17976663245412]}}, {"type": "Feature", "properties": {"norad_id": 65304, "name": "DRAGON CRS-33", "group": "stations", "lat": 2.179765872691392, "lon": -13.196666343130886, "alt_km": 417.0895369009877, "timestamp": "2025-12-07T11:27:48.758290+00:00", "meta": {"OBJECT_NAME": "DRAGON CRS-33", "OBJECT_ID": "2025-186A", "EPOCH": "2025-12-06T20:46:13.238400", "MEAN_MOTION": 15.49374779, "ECCENTRICITY": 0.00034973, "INCLINATION": 51.6304, "RA_OF_ASC_NODE": 171.5636, "ARG_OF_PERICENTER": 213.1314, "MEAN_ANOMALY": 146.9456, "EPHEMERIS_TYPE": 0, "CLASSIFICATION_TYPE": "U", "NORAD_CAT_ID": 65304, "ELEMENT_SET_NO": 999, "REV_AT_EPOCH": 11, "BSTAR": 0.00025393652, "MEAN_MOTION_DOT": 0.0001375, "MEAN_MOTION_DDOT": 0}, "tle": {"line1": "1 65304U 25186A   25340.86543100  .00013750  00000+0  25394-3 0  9992", "line2": "2 65304  51.6304 171.5636 0003497 213.1314 146.9456 15.49374779   119"}}, "geometry": {"type": "Point", "coordinates": [-13.196666343130886, 2.179765872691392]}}, {"type": "Feature", "properties": {"norad_id": 65586, "name": "PROGRESS-MS 32", "group": "stations", "lat": 2.179765315530914, "lon": -13.196665901486423, "alt_km": 417.08953695777745, "timestamp": "2025-12-07T11:27:48.758301+00:00", "meta": {"OBJECT_NAME": "PROGRESS-MS 32", "OBJECT_ID": "2025-204A", "EPOCH": "2025-12-06T20:46:13.238400", "MEAN_MOTION": 15.49374779, "ECCENTRICITY": 0.00034973, "INCLINATION": 51.6304, "RA_OF_ASC_NODE": 171.5636, "ARG_OF_PERICENTER": 213.1314, "MEAN_ANOMALY": 146.9456, "EPHEMERIS_TYPE": 0, "CLASSIFICATION_TYPE": "U", "NORAD_CAT_ID": 65586, "ELEMENT_SET_NO": 999, "REV_AT_EPOCH": 27, "BSTAR": 0.00025393652, "MEAN_MOTION_DOT": 0.0001375, "MEAN_MOTION_DDOT": 0}, "tle": {"line1": "1 65586U 25204A   25340.86543100  .00013750  00000+0  25394-3 0  9995", "line2": "2 65586  51.6304 171.5636 0003497 213.1314 146.9456 15.49374779   278"}}, "geometry": {"type": "Point", "coordinates": [-13.196665901486423, 2.179765315530914]}}, {"type": "Feature", "properties": {"norad_id": 65616, "name": "CYGNUS NG-23", "group": "stations", "lat": 2.179764809022627, "lon": -13.196665499992406, "alt_km": 417.0895370094122, "timestamp": "2025-12-07T11:27:48.758311+00:00", "meta": {"OBJECT_NAME": "CYGNUS NG-23", "OBJECT_ID": "2025-208A", "EPOCH": "2025-12-06T20:46:13.238400", "MEAN_MOTION": 15.49374779, "ECCENTRICITY": 0.00034973, "INCLINATION": 51.6304, "RA_OF_ASC_NODE": 171.5636, "ARG_OF_PERICENTER": 213.1314, "MEAN_ANOMALY": 146.9456, "EPHEMERIS_TYPE": 0, "CLASSIFICATION_TYPE": "U", "NORAD_CAT_ID": 65616, "ELEMENT_SET_NO": 999, "REV_AT_EPOCH": 22, "BSTAR": 0.00025393652, "MEAN_MOTION_DOT": 0.0001375, "MEAN_MOTION_DDOT": 0}, "tle": {"line1": "1 65616U 25208A   25340.86543100  .00013750  00000+0  25394-3 0  9993", "line2": "2 65616  51.6304 171.5636 0003497 213.1314 146.9456 15.49374779   227"}}, "geometry": {"type": "Point", "coordinates": [-13.196665499992406, 2.179764809022627]}}, {"type": "Feature", "properties": {"norad_id": 65729, "name": "DRAGONFLY", "group": "stations", "lat": 47.18155228797572, "lon": -76.12212331546479, "alt_km": 355.8478110101332, "timestamp": "2025-12-07T11:27:48.758322+00:00", "meta": {"OBJECT_NAME": "DRAGONFLY", "OBJECT_ID": "1998-067XH", "EPOCH": "2025-12-06T18:11:12.021792", "MEAN_MOTION": 15.69539731, "ECCENTRICITY": 0.00064636, "INCLINATION": 51.6244, "RA_OF_ASC_NODE": 166.34, "ARG_OF_PERICENTER": 240.1975, "MEAN_ANOMALY": 119.838, "EPHEMERIS_TYPE": 0, "CLASSIFICATION_TYPE": "U", "NORAD_CAT_ID": 65729, "ELEMENT_SET_NO": 999, "REV_AT_EPOCH": 1222, "BSTAR": 0.0016006166, "MEAN_MOTION_DOT": 0.00197078, "MEAN_MOTION_DDOT": 0}, "tle": {"line1": "1 65729U 98067XH  25340.75777803  .00197078  00000+0  16006-2 0  9993", "line2": "2 65729  51.6244 166.3400 0006463 240.1975 119.8380 15.69539731 12226"}}, "geometry": {"type": "Point", "coordinates": [-76.12212331546479, 47.18155228797572]}}, {"type": "Feature", "properties": {"norad_id": 65731, "name": "1998-067XK", "group": "stations", "lat": -44.51659765752065, "lon": 35.08168093149441, "alt_km": 375.8753968536339, "timestamp": "2025-12-07T11:27:48.758333+00:00", "meta": {"OBJECT_NAME": "1998-067XK", "OBJECT_ID": "1998-067XK", "EPOCH": "2025-12-06T19:05:46.784832", "MEAN_MOTION": 15.6431708, "ECCENTRICITY": 0.00056148, "INCLINATION": 51.6275, "RA_OF_ASC_NODE": 167.356, "ARG_OF_PERICENTER": 209.7044, "MEAN_ANOMALY": 150.3633, "EPHEMERIS_TYPE": 0, "CLASSIFICATION_TYPE": "U", "NORAD_CAT_ID": 65731, "ELEMENT_SET_NO": 999, "REV_AT_EPOCH": 1221, "BSTAR": 0.001226721, "MEAN_MOTION_DOT": 0.00120927, "MEAN_MOTION_DDOT": 0}, "tle": {"line1": "1 65731U 98067XK  25340.79568038  .00120927  00000+0  12267-2 0  9992", "line2": "2 65731  51.6275 167.3560 0005614 209.7044 150.3633 15.64317080 12212"}}, "geometry": {"type": "Point", "coordinates": [35.08168093149441, -44.51659765752065]}}, {"type": "Feature", "properties": {"norad_id": 65732, "name": "RSP-03", "group": "stations", "lat": 11.725009820713355, "lon": -26.15913910220936, "alt_km": 363.89510869558217, "timestamp": "2025-12-07T11:27:48.758343+00:00", "meta": {"OBJECT_NAME": "RSP-03", "OBJECT_ID": "1998-067XL", "EPOCH": "2025-12-06T19:27:20.778624", "MEAN_MOTION": 15.66782346, "ECCENTRICITY": 0.00064361, "INCLINATION": 51.6255, "RA_OF_ASC_NODE": 166.6987, "ARG_OF_PERICENTER": 212.9717, "MEAN_ANOMALY": 147.0878, "EPHEMERIS_TYPE": 0, "CLASSIFICATION_TYPE": "U", "NORAD_CAT_ID": 65732, "ELEMENT_SET_NO": 999, "REV_AT_EPOCH": 1223, "BSTAR": 0.0014177456, "MEAN_MOTION_DOT": 0.00155052, "MEAN_MOTION_DDOT": 0}, "tle": {"line1": "1 65732U 98067XL  25340.81065716  .00155052  00000+0  14177-2 0  9990", "line2": "2 65732  51.6255 166.6987 0006436 212.9717 147.0878 15.66782346 12231"}}, "geometry": {"type": "Point", "coordinates": [-26.15913910220936, 11.725009820713355]}}, {"type": "Feature", "properties": {"norad_id": 65733, "name": "GHS-01", "group": "stations", "lat": -19.628866640583965, "lon": 145.78736649376572, "alt_km": 355.54827907440267, "timestamp": "2025-12-07T11:27:48.758353+00:00", "meta": {"OBJECT_NAME": "GHS-01", "OBJECT_ID": "1998-067XM", "EPOCH": "2025-12-06T18:47:20.289408", "MEAN_MOTION": 15.71874043, "ECCENTRICITY": 0.00068988, "INCLINATION": 51.6272, "RA_OF_ASC_NODE": 165.7632, "ARG_OF_PERICENTER": 241.192, "MEAN_ANOMALY": 118.8385, "EPHEMERIS_TYPE": 0, "CLASSIFICATION_TYPE": "U", "NORAD_CAT_ID": 65733, "ELEMENT_SET_NO": 999, "REV_AT_EPOCH": 1224, "BSTAR": 0.00174144, "MEAN_MOTION_DOT": 0.00237688, "MEAN_MOTION_DDOT": 0}, "tle": {"line1": "1 65733U 98067XM  25340.78287372  .00237688  00000+0  17414-2 0  9994", "line2": "2 65733  51.6272 165.7632 0006898 241.1920 118.8385 15.71874043 12242"}}, "geometry": {"type": "Point", "coordinates": [145.78736649376572, -19.628866640583965]}}, {"type": "Feature", "properties": {"norad_id": 65941, "name": "YOTSUBA-KULOVER", "group": "stations", "lat": 42.73753252225416, "lon": -60.66034777740596, "alt_km": 385.76742047370317, "timestamp": "2025-12-07T11:27:48.758363+00:00", "meta": {"OBJECT_NAME": "YOTSUBA-KULOVER", "OBJECT_ID": "1998-067XN", "EPOCH": "2025-12-06T19:33:42.622560", "MEAN_MOTION": 15.58441577, "ECCENTRICITY": 0.00019681, "INCLINATION": 51.6278, "RA_OF_ASC_NODE": 169.7328, "ARG_OF_PERICENTER": 197.1439, "MEAN_ANOMALY": 162.9487, "EPHEMERIS_TYPE": 0, "CLASSIFICATION_TYPE": "U", "NORAD_CAT_ID": 65941, "ELEMENT_SET_NO": 999, "REV_AT_EPOCH": 893, "BSTAR": 0.0011638994, "MEAN_MOTION_DOT": 0.00090951, "MEAN_MOTION_DDOT": 0}, "tle": {"line1": "1 65941U 98067XN  25340.81507665  .00090951  00000+0  11639-2 0  9992", "line2": "2 65941  51.6278 169.7328 0001968 197.1439 162.9487 15.58441577  8934"}}, "geometry": {"type": "Point", "coordinates": [-60.66034777740596, 42.73753252225416]}}, {"type": "Feature", "properties": {"norad_id": 65942, "name": "BOTAN", "group": "stations", "lat": 21.82749566108298, "lon": -175.64903163347026, "alt_km": 383.4404009173877, "timestamp": "2025-12-07T11:27:48.758373+00:00", "meta": {"OBJECT_NAME": "BOTAN", "OBJECT_ID": "1998-067XP", "EPOCH": "2025-12-06T18:26:46.199328", "MEAN_MOTION": 15.61316825, "ECCENTRICITY": 0.00039822, "INCLINATION": 51.627, "RA_OF_ASC_NODE": 169.4226, "ARG_OF_PERICENTER": 191.5132, "MEAN_ANOMALY": 168.5771, "EPHEMERIS_TYPE": 0, "CLASSIFICATION_TYPE": "U", "NORAD_CAT_ID": 65942, "ELEMENT_SET_NO": 999, "REV_AT_EPOCH": 893, "BSTAR": 0.001480583, "MEAN_MOTION_DOT": 0.00129965, "MEAN_MOTION_DDOT": 0}, "tle": {"line1": "1 65942U 98067XP  25340.76859027  .00129965  00000+0  14806-2 0  9996", "line2": "2 65942  51.6270 169.4226 0003982 191.5132 168.5771 15.61316825  8936"}}, "geometry": {"type": "Point", "coordinates": [-175.64903163347026, 21.82749566108298]}}]}